[{"OBJECT_NAME":"STARLINK-35526","OBJECT_ID":"2025-225X","EPOCH":"2026-03-09T12:36:05.566752","MEAN_MOTION":15.3018248,"ECCENTRICITY":0.00011178,"INCLINATION":53.1599,"RA_OF_ASC_NODE":166.3893,"ARG_OF_PERICENTER":82.3211,"MEAN_ANOMALY":277.7917,"EPHEMERIS_TYPE":0,"CLASSIFICATION_TYPE":"U","NORAD_CAT_ID":65931,"ELEMENT_SET_NO":999,"REV_AT_EPOCH":2438,"BSTAR":0.00062906036,"MEAN_MOTION_DOT":0.00018308,"MEAN_MOTION_DDOT":0},{"OBJECT_NAME":"PEGASUS DEB","OBJECT_ID":"1994-029AES","EPOCH":"2026-03-06T17:32:52.876320","MEAN_MOTION":15.2736598,"ECCENTRICITY":0.00781089,"INCLINATION":81.9406,"RA_OF_ASC_NODE":336.1125,"ARG_OF_PERICENTER":102.4632,"MEAN_ANOMALY":258.5359,"EPHEMERIS_TYPE":0,"CLASSIFICATION_TYPE":"U","NORAD_CAT_ID":39307,"ELEMENT_SET_NO":999,"REV_AT_EPOCH":76792,"BSTAR":0.0021826707,"MEAN_MOTION_DOT":0.00064449,"MEAN_MOTION_DDOT":0}]
